STARLINK-35438          
1 66347U 25253AE  25329.83335647 -.01960033  00000+0 -30906-1 0  9995
2 66347  42.9997  83.5128 0001398 288.9874 275.6893 15.56267550  4211
STARLINK-35849          
1 66348U 25254A   25329.80062735  .00435084  00000+0  28109-2 0  9992
2 66348  53.1588 359.0393 0002075  75.6611 284.4639 15.74299933  4171
STARLINK-35848          
1 66349U 25254B   25329.80029103  .00400388  00000+0  26009-2 0  9991
2 66349  53.1587 359.0366 0002292  64.4482 295.6775 15.74272953  3014
STARLINK-35829          
1 66350U 25254C   25329.79995039  .00252055  00000+0  16710-2 0  9995
2 66350  53.1589 359.0341 0002039  71.3203 288.8038 15.74234445  3018
STARLINK-35828          
1 66351U 25254D   25329.79961081  .00310881  00000+0  20441-2 0  9994
2 66351  53.1588 359.0315 0001687  62.6904 297.4288 15.74251989  3013
STARLINK-35850          
1 66352U 25254E   25329.54531537  .00086822  00000+0  59120-3 0  9999
2 66352  53.1590   0.2892 0001314  68.5862 291.5297 15.74181785  2972
STARLINK-35869          
1 66353U 25254F   25329.60846611  .00161427  00000+0  10845-2 0  9994
2 66353  53.1587 359.9716 0001483  63.0903 297.0268 15.74210867  2985
STARLINK-35895          
1 66354U 25254G   25329.79860103  .00425791  00000+0  27553-2 0  9998
2 66354  53.1586 359.0238 0002230  86.1372 273.9903 15.74288889  3015
STARLINK-35861          
1 66355U 25254H   25329.54429958  .00200457  00000+0  13383-2 0  9997
2 66355  53.1588   0.2828 0001147  74.4936 285.6210 15.74229735  2970
STARLINK-35851          
1 66356U 25254J   25329.79792473  .00431782  00000+0  27915-2 0  9993
2 66356  53.1586 359.0194 0002425  77.9024 282.2268 15.74293819  3012
STARLINK-35817          
1 66357U 25254K   25329.79758454  .00368501  00000+0  24032-2 0  9990
2 66357  53.1586 359.0170 0002035  65.5470 294.5762 15.74273369  3015
STARLINK-35807          
1 66358U 25254L   25329.79724785  .00368942  00000+0  24060-2 0  9991
2 66358  53.1586 359.0144 0002316  79.9000 280.2281 15.74273441  3016
