CCSDS_OMM_VERS = 2.0
CREATION_DATE  = 
ORIGINATOR     = 

OBJECT_NAME    = STARLINK-35438
OBJECT_ID      = 2025-253AE
CENTER_NAME    = EARTH
REF_FRAME      = TEME
TIME_SYSTEM    = UTC
MEAN_ELEMENT_THEORY = SGP/SGP4

EPOCH          = 2025-11-25T20:00:01.999008
MEAN_MOTION    = 15.56267550
ECCENTRICITY   = .0001398
INCLINATION    = 42.9997
RA_OF_ASC_NODE = 83.5128
ARG_OF_PERICENTER = 288.9874
MEAN_ANOMALY   = 275.6893

EPHEMERIS_TYPE = 0
CLASSIFICATION_TYPE = U
NORAD_CAT_ID   = 66347
ELEMENT_SET_NO = 999
REV_AT_EPOCH   = 421
BSTAR          = -.30906E-1
MEAN_MOTION_DOT = -.1960033E-1
MEAN_MOTION_DDOT = 0

CCSDS_OMM_VERS = 2.0
CREATION_DATE  = 
ORIGINATOR     = 

OBJECT_NAME    = STARLINK-35849
OBJECT_ID      = 2025-254A
CENTER_NAME    = EARTH
REF_FRAME      = TEME
TIME_SYSTEM    = UTC
MEAN_ELEMENT_THEORY = SGP/SGP4

EPOCH          = 2025-11-25T19:12:54.203040
MEAN_MOTION    = 15.74299933
ECCENTRICITY   = .0002075
INCLINATION    = 53.1588
RA_OF_ASC_NODE = 359.0393
ARG_OF_PERICENTER = 75.6611
MEAN_ANOMALY   = 284.4639

EPHEMERIS_TYPE = 0
CLASSIFICATION_TYPE = U
NORAD_CAT_ID   = 66348
ELEMENT_SET_NO = 999
REV_AT_EPOCH   = 417
BSTAR          = .28109E-2
MEAN_MOTION_DOT = .435084E-2
MEAN_MOTION_DDOT = 0

CCSDS_OMM_VERS = 2.0
CREATION_DATE  = 
ORIGINATOR     = 

OBJECT_NAME    = STARLINK-35848
OBJECT_ID      = 2025-254B
CENTER_NAME    = EARTH
REF_FRAME      = TEME
TIME_SYSTEM    = UTC
MEAN_ELEMENT_THEORY = SGP/SGP4

EPOCH          = 2025-11-25T19:12:25.144992
MEAN_MOTION    = 15.74272953
ECCENTRICITY   = .0002292
INCLINATION    = 53.1587
RA_OF_ASC_NODE = 359.0366
ARG_OF_PERICENTER = 64.4482
MEAN_ANOMALY   = 295.6775

EPHEMERIS_TYPE = 0
CLASSIFICATION_TYPE = U
NORAD_CAT_ID   = 66349
ELEMENT_SET_NO = 999
REV_AT_EPOCH   = 301
BSTAR          = .26009E-2
MEAN_MOTION_DOT = .400388E-2
MEAN_MOTION_DDOT = 0

CCSDS_OMM_VERS = 2.0
CREATION_DATE  = 
ORIGINATOR     = 

OBJECT_NAME    = STARLINK-35829
OBJECT_ID      = 2025-254C
CENTER_NAME    = EARTH
REF_FRAME      = TEME
TIME_SYSTEM    = UTC
MEAN_ELEMENT_THEORY = SGP/SGP4

EPOCH          = 2025-11-25T19:11:55.713696
MEAN_MOTION    = 15.74234445
ECCENTRICITY   = .0002039
INCLINATION    = 53.1589
RA_OF_ASC_NODE = 359.0341
ARG_OF_PERICENTER = 71.3203
MEAN_ANOMALY   = 288.8038

EPHEMERIS_TYPE = 0
CLASSIFICATION_TYPE = U
NORAD_CAT_ID   = 66350
ELEMENT_SET_NO = 999
REV_AT_EPOCH   = 301
BSTAR          = .1671E-2
MEAN_MOTION_DOT = .252055E-2
MEAN_MOTION_DDOT = 0

CCSDS_OMM_VERS = 2.0
CREATION_DATE  = 
ORIGINATOR     = 

OBJECT_NAME    = STARLINK-35828
OBJECT_ID      = 2025-254D
CENTER_NAME    = EARTH
REF_FRAME      = TEME
TIME_SYSTEM    = UTC
MEAN_ELEMENT_THEORY = SGP/SGP4

EPOCH          = 2025-11-25T19:11:26.373984
MEAN_MOTION    = 15.74251989
ECCENTRICITY   = .0001687
INCLINATION    = 53.1588
RA_OF_ASC_NODE = 359.0315
ARG_OF_PERICENTER = 62.6904
MEAN_ANOMALY   = 297.4288

EPHEMERIS_TYPE = 0
CLASSIFICATION_TYPE = U
NORAD_CAT_ID   = 66351
ELEMENT_SET_NO = 999
REV_AT_EPOCH   = 301
BSTAR          = .20441E-2
MEAN_MOTION_DOT = .310881E-2
MEAN_MOTION_DDOT = 0

CCSDS_OMM_VERS = 2.0
CREATION_DATE  = 
ORIGINATOR     = 

OBJECT_NAME    = STARLINK-35850
OBJECT_ID      = 2025-254E
CENTER_NAME    = EARTH
REF_FRAME      = TEME
TIME_SYSTEM    = UTC
MEAN_ELEMENT_THEORY = SGP/SGP4

EPOCH          = 2025-11-25T13:05:15.247968
MEAN_MOTION    = 15.74181785
ECCENTRICITY   = .0001314
INCLINATION    = 53.1590
RA_OF_ASC_NODE = 0.2892
ARG_OF_PERICENTER = 68.5862
MEAN_ANOMALY   = 291.5297

EPHEMERIS_TYPE = 0
CLASSIFICATION_TYPE = U
NORAD_CAT_ID   = 66352
ELEMENT_SET_NO = 999
REV_AT_EPOCH   = 297
BSTAR          = .5912E-3
MEAN_MOTION_DOT = .86822E-3
MEAN_MOTION_DDOT = 0

CCSDS_OMM_VERS = 2.0
CREATION_DATE  = 
ORIGINATOR     = 

OBJECT_NAME    = STARLINK-35869
OBJECT_ID      = 2025-254F
CENTER_NAME    = EARTH
REF_FRAME      = TEME
TIME_SYSTEM    = UTC
MEAN_ELEMENT_THEORY = SGP/SGP4

EPOCH          = 2025-11-25T14:36:11.471904
MEAN_MOTION    = 15.74210867
ECCENTRICITY   = .0001483
INCLINATION    = 53.1587
RA_OF_ASC_NODE = 359.9716
ARG_OF_PERICENTER = 63.0903
MEAN_ANOMALY   = 297.0268

EPHEMERIS_TYPE = 0
CLASSIFICATION_TYPE = U
NORAD_CAT_ID   = 66353
ELEMENT_SET_NO = 999
REV_AT_EPOCH   = 298
BSTAR          = .10845E-2
MEAN_MOTION_DOT = .161427E-2
MEAN_MOTION_DDOT = 0

CCSDS_OMM_VERS = 2.0
CREATION_DATE  = 
ORIGINATOR     = 

OBJECT_NAME    = STARLINK-35895
OBJECT_ID      = 2025-254G
CENTER_NAME    = EARTH
REF_FRAME      = TEME
TIME_SYSTEM    = UTC
MEAN_ELEMENT_THEORY = SGP/SGP4

EPOCH          = 2025-11-25T19:09:59.128992
MEAN_MOTION    = 15.74288889
ECCENTRICITY   = .000223
INCLINATION    = 53.1586
RA_OF_ASC_NODE = 359.0238
ARG_OF_PERICENTER = 86.1372
MEAN_ANOMALY   = 273.9903

EPHEMERIS_TYPE = 0
CLASSIFICATION_TYPE = U
NORAD_CAT_ID   = 66354
ELEMENT_SET_NO = 999
REV_AT_EPOCH   = 301
BSTAR          = .27553E-2
MEAN_MOTION_DOT = .425791E-2
MEAN_MOTION_DDOT = 0

CCSDS_OMM_VERS = 2.0
CREATION_DATE  = 
ORIGINATOR     = 

OBJECT_NAME    = STARLINK-35861
OBJECT_ID      = 2025-254H
CENTER_NAME    = EARTH
REF_FRAME      = TEME
TIME_SYSTEM    = UTC
MEAN_ELEMENT_THEORY = SGP/SGP4

EPOCH          = 2025-11-25T13:03:47.483712
MEAN_MOTION    = 15.74229735
ECCENTRICITY   = .0001147
INCLINATION    = 53.1588
RA_OF_ASC_NODE = 0.2828
ARG_OF_PERICENTER = 74.4936
MEAN_ANOMALY   = 285.6210

EPHEMERIS_TYPE = 0
CLASSIFICATION_TYPE = U
NORAD_CAT_ID   = 66355
ELEMENT_SET_NO = 999
REV_AT_EPOCH   = 297
BSTAR          = .13383E-2
MEAN_MOTION_DOT = .200457E-2
MEAN_MOTION_DDOT = 0

CCSDS_OMM_VERS = 2.0
CREATION_DATE  = 
ORIGINATOR     = 

OBJECT_NAME    = STARLINK-35851
OBJECT_ID      = 2025-254J
CENTER_NAME    = EARTH
REF_FRAME      = TEME
TIME_SYSTEM    = UTC
MEAN_ELEMENT_THEORY = SGP/SGP4

EPOCH          = 2025-11-25T19:09:00.696672
MEAN_MOTION    = 15.74293819
ECCENTRICITY   = .0002425
INCLINATION    = 53.1586
RA_OF_ASC_NODE = 359.0194
ARG_OF_PERICENTER = 77.9024
MEAN_ANOMALY   = 282.2268

EPHEMERIS_TYPE = 0
CLASSIFICATION_TYPE = U
NORAD_CAT_ID   = 66356
ELEMENT_SET_NO = 999
REV_AT_EPOCH   = 301
BSTAR          = .27915E-2
MEAN_MOTION_DOT = .431782E-2
MEAN_MOTION_DDOT = 0

CCSDS_OMM_VERS = 2.0
CREATION_DATE  = 
ORIGINATOR     = 

OBJECT_NAME    = STARLINK-35817
OBJECT_ID      = 2025-254K
CENTER_NAME    = EARTH
REF_FRAME      = TEME
TIME_SYSTEM    = UTC
MEAN_ELEMENT_THEORY = SGP/SGP4

EPOCH          = 2025-11-25T19:08:31.304256
MEAN_MOTION    = 15.74273369
ECCENTRICITY   = .0002035
INCLINATION    = 53.1586
RA_OF_ASC_NODE = 359.0170
ARG_OF_PERICENTER = 65.5470
MEAN_ANOMALY   = 294.5762

EPHEMERIS_TYPE = 0
CLASSIFICATION_TYPE = U
NORAD_CAT_ID   = 66357
ELEMENT_SET_NO = 999
REV_AT_EPOCH   = 301
BSTAR          = .24032E-2
MEAN_MOTION_DOT = .368501E-2
MEAN_MOTION_DDOT = 0

CCSDS_OMM_VERS = 2.0
CREATION_DATE  = 
ORIGINATOR     = 

OBJECT_NAME    = STARLINK-35807
OBJECT_ID      = 2025-254L
CENTER_NAME    = EARTH
REF_FRAME      = TEME
TIME_SYSTEM    = UTC
MEAN_ELEMENT_THEORY = SGP/SGP4

EPOCH          = 2025-11-25T19:08:02.214240
MEAN_MOTION    = 15.74273441
ECCENTRICITY   = .0002316
INCLINATION    = 53.1586
RA_OF_ASC_NODE = 359.0144
ARG_OF_PERICENTER = 79.9000
MEAN_ANOMALY   = 280.2281

EPHEMERIS_TYPE = 0
CLASSIFICATION_TYPE = U
NORAD_CAT_ID   = 66358
ELEMENT_SET_NO = 999
REV_AT_EPOCH   = 301
BSTAR          = .2406E-2
MEAN_MOTION_DOT = .368942E-2
MEAN_MOTION_DDOT = 0

